NORAD_CAT_ID,OBJECT_NAME,OBJECT_TYPE,EPOCH,MEAN_MOTION,ECCENTRICITY,INCLINATION,RA_OF_ASC_NODE,ARG_OF_PERICENTER,MEAN_ANOMALY,BSTAR,MEAN_MOTION_DOT,MEAN_MOTION_DDOT,TLE_LINE0,TLE_LINE1,TLE_LINE2,SEMIMAJOR_AXIS,PERIOD,APOGEE,PERIGEE,DECAYED
54811.0,STARLINK-5424,PAYLOAD,2024-08-04 03:23:12,15.08876283,0.0001468,53.2173,119.3259,110.0684,250.0467,0.00068439,0.00010632,0.0,0 STARLINK-5424,1 54811U 22175BF  24217.14112219  .00010632  00000-0  68439-3 0  9998,2 54811  53.2173 119.3259 0001468 110.0684 250.0467 15.08876283 92251,6917.769,95.435,540.65,538.619,0.0
54811.0,STARLINK-5424,PAYLOAD,2024-08-04 20:52:27,15.0885955,0.0001674,53.2183,116.0534,107.1087,253.0089,0.00088234,0.0001379,0.0,0 STARLINK-5424,1 54811U 22175BF  24217.86976494  .00013790  00000-0  88234-3 0  9993,2 54811  53.2183 116.0534 0001674 107.1087 253.0089 15.08859550 90209,6917.821,95.436,540.844,538.528,0.0
54811.0,STARLINK-5424,PAYLOAD,2024-08-04 22:27:50,15.08860396,0.0001656,53.218,115.7561,107.7047,252.4126,0.00087453,0.00013665,0.0,0 STARLINK-5424,1 54811U 22175BF  24217.93600494  .00013665  00000-0  87453-3 0  9998,2 54811  53.2180 115.7561 0001656 107.7047 252.4126 15.08860396 92379,6917.818,95.436,540.829,538.537,0.0
54811.0,STARLINK-5424,PAYLOAD,2024-08-05 20:43:15,15.08856534,0.0002047,53.2175,111.591,125.8731,234.2451,0.00073213,0.00011388,0.0,0 STARLINK-5424,1 54811U 22175BF  24218.86337790  .00011388  00000-0  73213-3 0  9996,2 54811  53.2175 111.5910 0002047 125.8731 234.2451 15.08856534 90355,6917.83,95.437,541.111,538.279,0.0
54811.0,STARLINK-5424,PAYLOAD,2024-08-05 22:18:39,15.08852793,0.0001303,53.2176,111.2967,110.7847,249.3285,0.00069872,0.00010854,0.0,0 STARLINK-5424,1 54811U 22175BF  24218.92962263  .00010854  00000-0  69872-3 0  9995,2 54811  53.2176 111.2967 0001303 110.7847 249.3285 15.08852793 92526,6917.841,95.437,540.608,538.805,0.0
54811.0,STARLINK-5424,PAYLOAD,2024-08-06 03:04:50,15.08833825,0.0001283,53.2167,110.4082,88.3894,271.7245,0.00045476,6.956e-05,0.0,0 STARLINK-5424,1 54811U 22175BF  24219.12836630  .00006956  00000-0  45476-3 0  9998,2 54811  53.2167 110.4082 0001283  88.3894 271.7245 15.08833825 90397,6917.899,95.438,540.652,538.877,0.0
54811.0,STARLINK-5424,PAYLOAD,2024-08-06 20:34:03,15.08863776,0.0001415,53.2154,107.128,43.231,316.8792,0.00075118,0.00011695,0.0,0 STARLINK-5424,1 54811U 22175BF  24219.85698601  .00011695  00000-0  75118-3 0  9994,2 54811  53.2154 107.1280 0001415  43.2310 316.8792 15.08863776 90505,6917.808,95.436,540.652,538.694,0.0
54811.0,STARLINK-5424,PAYLOAD,2024-08-06 22:09:26,15.08869992,0.000133,53.2164,106.8373,76.8101,283.304,0.00079516,0.000124,0.0,0 STARLINK-5424,1 54811U 22175BF  24219.92322179  .00012400  00000-0  79516-3 0  9997,2 54811  53.2164 106.8373 0001330  76.8101 283.3040 15.08869992 92671,6917.789,95.436,540.574,538.734,0.0
54811.0,STARLINK-5424,PAYLOAD,2024-08-06 23:44:49,15.08874612,0.0001392,53.2166,106.5407,85.1057,275.0094,0.00081836,0.00012772,0.0,0 STARLINK-5424,1 54811U 22175BF  24219.98945799  .00012772  00000-0  81836-3 0  9992,2 54811  53.2166 106.5407 0001392  85.1057 275.0094 15.08874612 90523,6917.775,95.435,540.603,538.677,0.0
54811.0,STARLINK-5424,PAYLOAD,2024-08-07 20:24:49,15.08860983,0.0001488,53.2174,102.6772,82.8424,277.2737,0.0011542,0.00018139,0.0,0 STARLINK-5424,1 54811U 22175BF  24220.85057298  .00018139  00000-0  11542-2 0  9997,2 54811  53.2174 102.6772 0001488  82.8424 277.2737 15.08860983 90650,6917.816,95.436,540.711,538.652,0.0
54811.0,STARLINK-5424,PAYLOAD,2024-08-08 01:10:58,15.08863631,0.0001465,53.2171,101.785,78.7233,281.3924,0.0011126,0.00017475,0.0,0 STARLINK-5424,1 54811U 22175BF  24221.04929354  .00017475  00000-0  11126-2 0  9990,2 54811  53.2171 101.7850 0001465  78.7233 281.3924 15.08863631 92841,6917.808,95.436,540.687,538.66,0.0
54811.0,STARLINK-5424,PAYLOAD,2024-08-08 21:50:59,15.08885283,0.000117,53.2172,97.9199,94.5457,265.5669,0.00073351,0.0001142,0.0,0 STARLINK-5424,1 54811U 22175BF  24221.91041204  .00011420  00000-0  73351-3 0  9998,2 54811  53.2172  97.9199 0001170  94.5457 265.5669 15.08885283 90813,6917.742,95.435,540.416,538.798,0.0
54811.0,STARLINK-5424,PAYLOAD,2024-08-09 01:01:46,15.08875856,0.0001627,53.2177,97.3284,116.5583,243.5576,0.00071492,0.00011119,0.0,0 STARLINK-5424,1 54811U 22175BF  24222.04289724  .00011119  00000-0  71492-3 0  9993,2 54811  53.2177  97.3284 0001627 116.5583 243.5576 15.08875856 90839,6917.771,95.435,540.761,538.51,0.0
54811.0,STARLINK-5424,PAYLOAD,2024-08-09 08:58:41,15.08884471,0.0001498,53.218,95.8333,86.1547,273.9616,0.00071453,0.00011116,0.0,0 STARLINK-5424,1 54811U 22175BF  24222.37408991  .00011116  00000-0  71453-3 0  9992,2 54811  53.2180  95.8333 0001498  86.1547 273.9616 15.08884471 93040,6917.744,95.435,540.646,538.573,0.0
54811.0,STARLINK-5424,PAYLOAD,2024-08-09 20:06:24,15.08863656,0.000149,53.217,93.7571,98.6281,261.488,0.00063355,9.816e-05,0.0,0 STARLINK-5424,1 54811U 22175BF  24222.83778231  .00009816  00000-0  63355-3 0  9996,2 54811  53.2170  93.7571 0001490  98.6281 261.4880 15.08863656 90959,6917.808,95.436,540.704,538.642,0.0
54811.0,STARLINK-5424,PAYLOAD,2024-08-09 21:41:47,15.08859243,0.0001999,53.2176,93.4602,126.9661,233.1514,0.00071378,0.00011096,0.0,0 STARLINK-5424,1 54811U 22175BF  24222.90402091  .00011096  00000-0  71378-3 0  9999,2 54811  53.2176  93.4602 0001999 126.9661 233.1514 15.08859243 93127,6917.822,95.436,541.069,538.304,0.0
54811.0,STARLINK-5424,PAYLOAD,2024-08-10 00:52:32,15.08870857,0.000213,53.2174,92.8606,141.0455,219.0691,0.00079991,0.00012476,0.0,0 STARLINK-5424,1 54811U 22175BF  24223.03648935  .00012476  00000-0  79991-3 0  9995,2 54811  53.2174  92.8606 0002130 141.0455 219.0691 15.08870857 90983,6917.786,95.436,541.125,538.178,0.0
54811.0,STARLINK-5424,PAYLOAD,2024-08-10 15:11:01,15.08863913,0.0001179,53.2164,90.1825,94.427,265.6857,0.00078944,0.00012306,0.0,0 STARLINK-5424,1 54811U 22175BF  24223.63265384  .00012306  00000-0  78944-3 0  9993,2 54811  53.2164  90.1825 0001179  94.4270 265.6857 15.08863913 93231,6917.807,95.436,540.488,538.857,0.0
54811.0,STARLINK-5424,PAYLOAD,2024-08-10 21:32:33,15.08870145,0.0001276,53.2168,88.9928,94.1808,265.933,0.00079023,0.00012321,0.0,0 STARLINK-5424,1 54811U 22175BF  24223.89761035  .00012321  00000-0  79023-3 0  9991,2 54811  53.2168  88.9928 0001276  94.1808 265.9330 15.08870145 91115,6917.788,95.436,540.536,538.771,0.0
54811.0,STARLINK-5424,PAYLOAD,2024-08-11 21:23:20,15.0886235,0.0001953,53.2174,84.538,96.9412,263.1802,0.00081344,0.00012689,0.0,0 STARLINK-5424,1 54811U 22175BF  24224.89121517  .00012689  00000-0  81344-3 0  9993,2 54811  53.2174  84.5380 0001953  96.9412 263.1802 15.08862350 91268,6917.812,95.436,541.028,538.326,0.0
54811.0,STARLINK-5424,PAYLOAD,2024-08-12 22:49:29,15.08879911,0.0001477,53.2181,79.7766,106.1314,253.9841,0.00083552,0.00013049,0.0,0 STARLINK-5424,1 54811U 22175BF  24225.95104080  .00013049  00000-0  83552-3 0  9991,2 54811  53.2181  79.7766 0001477 106.1314 253.9841 15.08879911 91425,6917.758,95.435,540.645,538.602,0.0
54811.0,STARLINK-5424,PAYLOAD,2024-08-13 06:46:24,15.08899175,0.0001185,53.2154,78.2939,92.3427,267.7701,0.00088984,0.00013925,0.0,0 STARLINK-5424,1 54811U 22175BF  24226.28222241  .00013925  00000-0  88984-3 0  9995,2 54811  53.2154  78.2939 0001185  92.3427 267.7701 15.08899175 91475,6917.7,95.434,540.384,538.745,0.0
54811.0,STARLINK-5424,PAYLOAD,2024-08-13 14:43:24,15.08836705,0.000239,53.2153,76.8028,115.6783,244.4456,0.00060307,9.322e-05,0.0,0 STARLINK-5424,1 54811U 22175BF  24226.61347378  .00009322  00000-0  60307-3 0  9996,2 54811  53.2153  76.8028 0002390 115.6783 244.4456 15.08836705 93684,6917.89,95.438,541.409,538.102,0.0
54811.0,STARLINK-5424,PAYLOAD,2024-08-13 21:04:57,15.08832888,0.0001828,53.2158,75.6163,106.3129,253.8064,0.00054691,8.425e-05,0.0,0 STARLINK-5424,1 54811U 22175BF  24226.87844549  .00008425  00000-0  54691-3 0  9998,2 54811  53.2158  75.6163 0001828 106.3129 253.8064 15.08832888 91564,6917.902,95.438,541.032,538.503,0.0
54811.0,STARLINK-5424,PAYLOAD,2024-08-14 06:37:16,15.0884126,0.0001651,53.2156,73.8323,102.6488,257.4689,0.00055644,8.579e-05,0.0,0 STARLINK-5424,1 54811U 22175BF  24227.27588473  .00008579  00000-0  55644-3 0  9993,2 54811  53.2156  73.8323 0001651 102.6488 257.4689 15.08841260 93784,6917.877,95.437,540.884,538.599,0.0
54811.0,STARLINK-5424,PAYLOAD,2024-08-14 20:55:44,15.08868769,0.0001384,53.217,71.1547,83.9318,276.1832,0.00052047,8.011e-05,0.0,0 STARLINK-5424,1 54811U 22175BF  24227.87203727  .00008011  00000-0  52047-3 0  9990,2 54811  53.2170  71.1547 0001384  83.9318 276.1832 15.08868769 91717,6917.792,95.436,540.615,538.7,0.0
54811.0,STARLINK-5424,PAYLOAD,2024-08-15 06:28:02,15.08874441,0.00016,53.217,69.3703,85.2165,274.901,0.0006079,9.409e-05,0.0,0 STARLINK-5424,1 54811U 22175BF  24228.26947193  .00009409  00000-0  60790-3 0  9992,2 54811  53.2170  69.3703 0001600  85.2165 274.9010 15.08874441 93930,6917.775,95.435,540.747,538.533,0.0
54811.0,STARLINK-5424,PAYLOAD,2024-08-17 20:28:03,15.08875844,0.0002591,53.2174,57.7714,17.5338,342.5744,0.00050068,7.697e-05,0.0,0 STARLINK-5424,1 54811U 22175BF  24230.85281824  .00007697  00000-0  50068-3 0  9996,2 54811  53.2174  57.7714 0002591  17.5338 342.5744 15.08875844 92165,6917.771,95.435,541.428,537.843,0.0
54811.0,STARLINK-5424,PAYLOAD,2024-08-18 01:14:09,15.0879666,0.0001544,53.2172,56.8807,94.1211,265.9957,0.0014791,0.00023302,0.0,0 STARLINK-5424,1 54811U 22175BF  24231.05149599  .00023302  00000-0  14791-2 0  9994,2 54811  53.2172  56.8807 0001544  94.1211 265.9957 15.08796660 94359,6918.013,95.44,540.946,538.81,0.0
54811.0,STARLINK-5424,PAYLOAD,2024-08-18 12:22:01,15.08691315,0.0001971,53.2168,54.8005,73.7645,286.3563,0.00050156,7.671e-05,0.0,0 STARLINK-5424,1 54811U 22175BF  24231.51529028  .00007671  00000-0  50156-3 0  9991,2 54811  53.2168  54.8005 0001971  73.7645 286.3563 15.08691315 92269,6918.335,95.447,541.564,538.836,0.0
